NORAD_CAT_ID,OBJECT_NAME,OBJECT_TYPE,EPOCH,MEAN_MOTION,ECCENTRICITY,INCLINATION,RA_OF_ASC_NODE,ARG_OF_PERICENTER,MEAN_ANOMALY,BSTAR,MEAN_MOTION_DOT,MEAN_MOTION_DDOT,TLE_LINE0,TLE_LINE1,TLE_LINE2,SEMIMAJOR_AXIS,PERIOD,APOGEE,PERIGEE,DECAYED
52132.0,STARLINK-3718,PAYLOAD,2022-10-02 11:49:51,15.08835337,0.0002089,53.2173,299.4273,37.5122,322.6015,-0.00011668,-2.145e-05,0.0,0 STARLINK-3718,1 52132U 22029AW  22275.49295862 -.00002145  00000-0 -11668-3 0  9990,2 52132  53.2173 299.4273 0002089  37.5122 322.6015 15.08835337 31591,6917.895,95.438,541.205,538.314,0.0
52132.0,STARLINK-3718,PAYLOAD,2022-10-02 18:11:24,15.08838706,0.0002005999999999,53.2171,298.2379,37.1904,322.9227,3.0244e-05,1.93e-06,0.0,0 STARLINK-3718,1 52132U 22029AW  22275.75791948  .00000193  00000-0  30244-4 0  9996,2 52132  53.2171 298.2379 0002006  37.1904 322.9227 15.08838706 31632,6917.884,95.438,541.137,538.362,0.0
52132.0,STARLINK-3718,PAYLOAD,2022-10-03 05:19:06,15.08845507,0.0002032999999999,53.2172,296.156,38.6413,321.4724,0.00016663,2.365e-05,0.0,0 STARLINK-3718,1 52132U 22029AW  22276.22159810  .00002365  00000-0  16663-3 0  9996,2 52132  53.2172 296.1560 0002033  38.6413 321.4724 15.08845507 31704,6917.864000000001,95.437,541.135,538.322,0.0
52132.0,STARLINK-3718,PAYLOAD,2022-10-03 06:54:29,15.08847709,0.0002044999999999,53.2172,295.8586,38.1687,321.945,0.00022878,3.356e-05,0.0,0 STARLINK-3718,1 52132U 22029AW  22276.28783713  .00003356  00000-0  22878-3 0  9993,2 52132  53.2172 295.8586 0002045  38.1687 321.9450 15.08847709 31717,6917.857,95.437,541.137,538.307,0.0
52132.0,STARLINK-3718,PAYLOAD,2022-10-03 13:16:01,15.08852863,0.0002083,53.2172,294.6693,38.6804,321.4337,0.00036594,5.543e-05,0.0,0 STARLINK-3718,1 52132U 22029AW  22276.55279488  .00005543  00000-0  36594-3 0  9992,2 52132  53.2172 294.6693 0002083  38.6804 321.4337 15.08852863 31751,6917.840999999999,95.437,541.1469999999998,538.265,0.0
52132.0,STARLINK-3718,PAYLOAD,2022-10-04 09:56:02,15.08837083,0.0002037,53.2169,290.8037,36.842,323.2712,0.00014,1.94e-05,0.0,0 STARLINK-3718,1 52132U 22029AW  22277.41391745  .00001940  00000-0  14000-3 0  9994,2 52132  53.2169 290.8037 0002037  36.8420 323.2712 15.08837083 31888,6917.889,95.438,541.163,538.345,0.0
52132.0,STARLINK-3718,PAYLOAD,2022-10-04 17:52:57,15.0884339,0.000234,53.218,289.3164,33.7461,326.368,0.00019598,2.832e-05,0.0,0 STARLINK-3718,1 52132U 22029AW  22277.74511419  .00002832  00000-0  19598-3 0  9990,2 52132  53.2180 289.3164 0002340  33.7461 326.3680 15.08843390 31935,6917.87,95.437,541.354,538.116,0.0
52132.0,STARLINK-3718,PAYLOAD,2022-10-05 05:00:40,15.08832804,0.0002184,53.2181,287.2355,39.7759,320.3393,-3.2398000000000007e-06,-3.4e-06,0.0,0 STARLINK-3718,1 52132U 22029AW  22278.20880586 -.00000340  00000-0 -32398-5 0  9995,2 52132  53.2181 287.2355 0002184  39.7759 320.3393 15.08832804 32009,6917.901999999999,95.438,541.278,538.257,0.0
52132.0,STARLINK-3718,PAYLOAD,2022-10-05 09:46:49,15.08877804,0.0002241,53.2184,286.3443,39.4458,320.6697,-0.00063704,-0.00010423,0.0,0 STARLINK-3718,1 52132U 22029AW  22278.40751199 -.00010423  00000-0 -63704-3 0  9990,2 52132  53.2184 286.3443 0002241  39.4458 320.6697 15.08877804 32039,6917.765,95.435,541.18,538.08,0.0
52132.0,STARLINK-3718,PAYLOAD,2022-10-05 17:43:45,15.08844017,0.0002085999999999,53.2177,284.857,36.5324,323.581,-2.4876e-05,-6.84e-06,0.0,0 STARLINK-3718,1 52132U 22029AW  22278.73871831 -.00000684  00000-0 -24876-4 0  9998,2 52132  53.2177 284.8570 0002086  36.5324 323.5810 15.08844017 32086,6917.868,95.437,541.1759999999998,538.29,0.0
52132.0,STARLINK-3718,PAYLOAD,2022-10-06 00:05:17,15.08845317,0.0001985,53.2183,283.6671,34.8006,325.3116,2.0777e-05,4.3e-07,0.0,0 STARLINK-3718,1 52132U 22029AW  22279.00367522  .00000043  00000-0  20777-4 0  9999,2 52132  53.2183 283.6671 0001985  34.8006 325.3116 15.08845317 32125,6917.864000000001,95.437,541.102,538.356,0.0
52132.0,STARLINK-3718,PAYLOAD,2022-10-06 08:02:13,15.08838052,0.0002056,53.2178,282.1805,34.5659,325.5467,-6.5924e-06,-3.93e-06,0.0,0 STARLINK-3718,1 52132U 22029AW  22279.33488125 -.00000393  00000-0 -65924-5 0  9992,2 52132  53.2178 282.1805 0002056  34.5659 325.5467 15.08838052 32177,6917.886,95.438,541.174,538.3290000000002,0.0
52132.0,STARLINK-3718,PAYLOAD,2022-10-06 17:34:31,15.08845236,0.0002085,53.2181,280.3953,37.2635,322.8502,8.993e-05,1.144e-05,0.0,0 STARLINK-3718,1 52132U 22029AW  22279.73231409  .00001144  00000-0  89930-4 0  9992,2 52132  53.2181 280.3953 0002085  37.2635 322.8502 15.08845236 32230,6917.864000000001,95.437,541.172,538.2869999999998,0.0
52132.0,STARLINK-3718,PAYLOAD,2022-10-06 23:56:04,15.08837253,0.0001975,53.2182,279.2058,38.4733,321.64,0.00013749,1.901e-05,0.0,0 STARLINK-3718,1 52132U 22029AW  22279.99727759  .00001901  00000-0  13749-3 0  9993,2 52132  53.2182 279.2058 0001975  38.4733 321.6400 15.08837253 32271,6917.889,95.438,541.12,538.388,0.0
52132.0,STARLINK-3718,PAYLOAD,2022-10-07 11:03:46,15.08845507,0.0001961,53.218,277.1236,46.2798,313.8356,0.00019724,2.853e-05,0.0,0 STARLINK-3718,1 52132U 22029AW  22280.46095195  .00002853  00000-0  19724-3 0  9995,2 52132  53.2180 277.1236 0001961  46.2798 313.8356 15.08845507 32349,6917.864000000001,95.437,541.085,538.372,0.0
52132.0,STARLINK-3718,PAYLOAD,2022-10-08 04:33:01,15.08837035,0.0002056999999999,53.2183,273.8521,44.8351,315.2807,3.864e-05,3.27e-06,0.0,0 STARLINK-3718,1 52132U 22029AW  22281.18960062  .00000327  00000-0  38640-4 0  9992,2 52132  53.2183 273.8521 0002057  44.8351 315.2807 15.08837035 32454,6917.889,95.438,541.177,538.331,0.0
52132.0,STARLINK-3718,PAYLOAD,2022-10-08 10:54:34,15.08829693,0.0001975,53.2176,272.6618,45.7427,314.3727,-1.717e-05,-5.61e-06,0.0,0 STARLINK-3718,1 52132U 22029AW  22281.45456709 -.00000561  00000-0 -17170-4 0  9997,2 52132  53.2176 272.6618 0001975  45.7427 314.3727 15.08829693 32498,6917.9119999999975,95.438,541.143,538.411,0.0
52132.0,STARLINK-3718,PAYLOAD,2022-10-09 04:23:48,15.08840314,0.0001837,53.2178,269.3916,44.9441,315.1699,2.0107e-05,3.2e-07,0.0,0 STARLINK-3718,1 52132U 22029AW  22282.18319988  .00000032  00000-0  20107-4 0  9990,2 52132  53.2178 269.3916 0001837  44.9441 315.1699 15.08840314 32601,6917.879,95.438,541.015,538.474,0.0
52132.0,STARLINK-3718,PAYLOAD,2022-10-09 10:45:21,15.08841411,0.0001875,53.2181,268.2022,43.1672,316.9466,-8.2475e-06,-4.19e-06,0.0,0 STARLINK-3718,1 52132U 22029AW  22282.44815979 -.00000419  00000-0 -82475-5 0  9998,2 52132  53.2181 268.2022 0001875  43.1672 316.9466 15.08841411 32644,6917.876,95.437,541.038,538.444,0.0
52132.0,STARLINK-3718,PAYLOAD,2022-10-10 09:00:45,15.08834116,0.0001940999999999,53.2179,264.0426,43.0837,317.0307,1.9409e-05,2.1e-07,0.0,0 STARLINK-3718,1 52132U 22029AW  22283.37552385  .00000021  00000-0  19409-4 0  9993,2 52132  53.2179 264.0426 0001941  43.0837 317.0307 15.08834116 32784,6917.898,95.438,541.106,538.4209999999998,0.0
52132.0,STARLINK-3718,PAYLOAD,2022-10-11 07:16:09,15.08831676,0.0002105,53.2173,259.8787,33.5607,326.5518,-1.4909e-05,-5.25e-06,0.0,0 STARLINK-3718,1 52132U 22029AW  22284.30288803 -.00000525  00000-0 -14909-4 0  9999,2 52132  53.2173 259.8787 0002105  33.5607 326.5518 15.08831676 32925,6917.906,95.438,541.227,538.315,0.0
52132.0,STARLINK-3718,PAYLOAD,2022-10-12 03:56:10,15.08835652,0.0001905,53.2184,256.0135,48.9415,311.1741,-7.9328e-05,-1.55e-05,0.0,0 STARLINK-3718,1 52132U 22029AW  22285.16401616 -.00001550  00000-0 -79328-4 0  9998,2 52132  53.2184 256.0135 0001905  48.9415 311.1741 15.08835652 33058,6917.894,95.438,541.077,538.441,0.0
52132.0,STARLINK-3718,PAYLOAD,2022-10-12 07:06:56,15.08845405,0.0001869,53.2179,255.4178,44.2438,315.8703,-1.4628e-06,-3.11e-06,0.0,0 STARLINK-3718,1 52132U 22029AW  22285.29648794 -.00000311  00000-0 -14628-5 0  9999,2 52132  53.2179 255.4178 0001869  44.2438 315.8703 15.08845405 33073,6917.864000000001,95.437,541.0219999999998,538.436,0.0
52132.0,STARLINK-3718,PAYLOAD,2022-10-13 03:46:58,15.08836536,0.0001983,53.2179,251.5519,42.4101,317.7044,1.7878e-05,-4e-08,0.0,0 STARLINK-3718,1 52132U 22029AW  22286.15761626 -.00000004  00000-0  17878-4 0  9992,2 52132  53.2179 251.5519 0001983  42.4101 317.7044 15.08836536 33202,6917.891,95.438,541.128,538.384,0.0
52132.0,STARLINK-3718,PAYLOAD,2022-10-13 06:57:44,15.08837219,0.0002021999999999,53.2178,250.9563,40.5456,319.5687,2.7317e-05,1.47e-06,0.0,0 STARLINK-3718,1 52132U 22029AW  22286.29009622  .00000147  00000-0  27317-4 0  9994,2 52132  53.2178 250.9563 0002022  40.5456 319.5687 15.08837219 33224,6917.889,95.438,541.153,538.355,0.0
52132.0,STARLINK-3718,PAYLOAD,2022-10-13 14:54:39,15.0884559,0.000193,53.2179,249.4697,44.8206,315.2942,6.6607e-05,7.72e-06,0.0,0 STARLINK-3718,1 52132U 22029AW  22286.62129001  .00000772  00000-0  66607-4 0  9994,2 52132  53.2179 249.4697 0001930  44.8206 315.2942 15.08845590 33276,6917.863,95.437,541.063,538.393,0.0
52132.0,STARLINK-3718,PAYLOAD,2022-10-14 09:59:16,15.08876179,0.000181,53.2179,245.9018,41.7284,318.3846,-0.00040599,-6.75e-05,0.0,0 STARLINK-3718,1 52132U 22029AW  22287.41616228 -.00006750  00000-0 -40599-3 0  9999,2 52132  53.2179 245.9018 0001810  41.7284 318.3846 15.08876179 33390,6917.77,95.435,540.887,538.383,0.0
52132.0,STARLINK-3718,PAYLOAD,2022-10-14 14:45:26,15.08848146,0.0002002,53.218,245.01,44.1449,315.9702,9.0887e-05,1.159e-05,0.0,0 STARLINK-3718,1 52132U 22029AW  22287.61488832  .00001159  00000-0  90887-4 0  9991,2 52132  53.2180 245.0100 0002002  44.1449 315.9702 15.08848146 33420,6917.855,95.437,541.105,538.336,0.0
52132.0,STARLINK-3718,PAYLOAD,2022-10-14 21:06:59,15.08857032,0.0001993,53.2177,243.8217,41.037,319.0772,-7.8828e-05,-1.543e-05,0.0,0 STARLINK-3718,1 52132U 22029AW  22287.87984968 -.00001543  00000-0 -78828-4 0  9990,2 52132  53.2177 243.8217 0001993  41.0370 319.0772 15.08857032 33468,6917.828,95.436,541.072,538.315,0.0
